NAVSTAR 77 (USA 289)    
1 43873U 18109A   23350.56058928  .00000060  00000+0  00000+0 0  9994
2 43873  55.2305 128.2860 0027968 190.7219 131.3824  2.00571783 36740
